SL-4 R/B                
1 39679U 14021B   25362.61187801  .00013240  00000+0  31276-3 0  9993
2 39679  51.6088 323.4367 0100466 203.5378 156.0991 15.37049894645339
ALOS-2                  
1 39766U 14029A   25362.83966772  .00003734  00000+0  50656-3 0  9994
2 39766  97.9213  97.4560 0001463  96.6313 263.5065 14.79478064626390
YAOGAN-29               
1 41038U 15069A   25362.87911553  .00000170  00000+0  27640-4 0  9994
2 41038  98.0211  26.1014 0001166 158.9740 201.1521 14.82898376545384
ASTRO-H (HITOMI)        
1 41337U 16012A   25362.62725728  .00004762  00000+0  28428-3 0  9990
2 41337  30.9995  94.9393 0009649 338.0410  21.9814 15.09461267541487
HXMT (HUIYAN)           
1 42758U 17034A   25362.86363905  .00008589  00000+0  43986-3 0  9991
2 42758  43.0148  50.1415 0031639 148.9429 211.3297 15.16436630471780
CZ-2C R/B               
1 43521U 18054D   25362.50960960  .00157696  00000+0  88896-3 0  9991
2 43521  35.1327  73.6902 0013928 300.0344  59.9008 15.77586265417546
SAOCOM 1A               
1 43641U 18076A   25362.80694799  .00000248  00000+0  37694-4 0  9996
2 43641  97.8848 186.9950 0001353  84.1631 275.9737 14.82149043390869
H-2A R/B                
1 43682U 18084L   25362.83093031  .00024592  00000+0  65187-3 0  9990
2 43682  98.8770 200.2523 0026353 269.9742  89.8479 15.37991469394876
SAOCOM 1B               
1 46265U 20059A   25362.83819579  .00000695  00000+0  93911-4 0  9993
2 46265  97.8846 186.1255 0001449  84.4138 275.7240 14.82156417288252
CSS (TIANHE)            
1 48274U 21035A   25362.78858609  .00021334  00000+0  26121-3 0  9992
2 48274  41.4673 279.2286 0009137 170.0395 190.0626 15.59818740266537
COSMOS 2550             
1 48865U 21056A   25362.04982924 -.00000149  00000+0  12962-5 0  9990
2 48865  67.1448 257.6258 0008372 269.7459  90.2736 15.33830504252479
CZ-2C R/B               
1 52794U 22058K   25362.29055279  .00040673  00000+0  70496-3 0  9999
2 52794  50.1925 324.1990 0044355 262.4097  97.1832 15.49329420199042
